{
  "type": "FeatureCollection",
  "features": [
    {
      "type": "Feature",
      "properties": {
        "norad_id": 41890,
        "name": "CYGFM07",
        "group": "weather",
        "lat": -26.268627247009157,
        "lon": -73.19501944374484,
        "alt_km": 411.36377934383927,
        "timestamp": "2025-12-20T07:33:50.443750+00:00",
        "meta_object_name": "CYGFM07",
        "meta_object_id": "2016-078G",
        "meta_epoch": "2025-12-19T08:35:55.881024",
        "meta_mean_motion": 15.50269103,
        "meta_eccentricity": 0.0010122,
        "meta_inclination": 34.9484,
        "meta_ra_of_asc_node": 338.0499,
        "meta_arg_of_pericenter": 271.9138,
        "meta_mean_anomaly": 88.0425,
        "meta_ephemeris_type": 0,
        "meta_classification_type": "U",
        "meta_norad_cat_id": 41890,
        "meta_element_set_no": 999,
        "meta_rev_at_epoch": 50098,
        "meta_bstar": 0.00031348,
        "meta_mean_motion_dot": 0.00018328,
        "meta_mean_motion_ddot": 0,
        "tle_line1": "1 41890U 16078G   25353.35828566  .00018328  00000+0  31348-3 0  9998",
        "tle_line2": "2 41890  34.9484 338.0499 0010122 271.9138  88.0425 15.50269103500980"
      },
      "geometry": {
        "type": "Point",
        "coordinates": [
          -73.19501944374484,
          -26.268627247009157
        ]
      }
    },
    {
      "type": "Feature",
      "properties": {
        "norad_id": 41891,
        "name": "CYGFM03",
        "group": "weather",
        "lat": 20.988336020591024,
        "lon": 120.37000158684616,
        "alt_km": 415.93990096882317,
        "timestamp": "2025-12-20T07:33:50.443762+00:00",
        "meta_object_name": "CYGFM03",
        "meta_object_id": "2016-078H",
        "meta_epoch": "2025-12-19T09:19:08.109120",
        "meta_mean_motion": 15.50167103,
        "meta_eccentricity": 0.0009679,
        "meta_inclination": 34.9439,
        "meta_ra_of_asc_node": 339.7759,
        "meta_arg_of_pericenter": 260.0765,
        "meta_mean_anomaly": 99.8864,
        "meta_ephemeris_type": 0,
        "meta_classification_type": "U",
        "meta_norad_cat_id": 41891,
        "meta_element_set_no": 999,
        "meta_rev_at_epoch": 50096,
        "meta_bstar": 0.0003054,
        "meta_mean_motion_dot": 0.00017785,
        "meta_mean_motion_ddot": 0,
        "tle_line1": "1 41891U 16078H   25353.38828830  .00017785  00000+0  30540-3 0  9995",
        "tle_line2": "2 41891  34.9439 339.7759 0009679 260.0765  99.8864 15.50167103500960"
      },
      "geometry": {
        "type": "Point",
        "coordinates": [
          120.37000158684616,
          20.988336020591024
        ]
      }
    },
    {
      "type": "Feature",
      "properties": {
        "norad_id": 43010,
        "name": "FENGYUN 3D",
        "group": "weather",
        "lat": -3.03915785408728,
        "lon": 140.25710645219704,
        "alt_km": 828.8416860030075,
        "timestamp": "2025-12-20T07:33:50.443773+00:00",
        "meta_object_name": "FENGYUN 3D",
        "meta_object_id": "2017-072A",
        "meta_epoch": "2025-12-19T22:14:51.650880",
        "meta_mean_motion": 14.19684909,
        "meta_eccentricity": 0.00013287,
        "meta_inclination": 98.9894,
        "meta_ra_of_asc_node": 320.3447,
        "meta_arg_of_pericenter": 159.5385,
        "meta_mean_anomaly": 200.5843,
        "meta_ephemeris_type": 0,
        "meta_classification_type": "U",
        "meta_norad_cat_id": 43010,
        "meta_element_set_no": 999,
        "meta_rev_at_epoch": 41955,
        "meta_bstar": -0.00012002762,
        "meta_mean_motion_dot": -3e-06,
        "meta_mean_motion_ddot": 0,
        "tle_line1": "1 43010U 17072A   25353.92698670 -.00000300  00000+0 -12003-3 0  9993",
        "tle_line2": "2 43010  98.9894 320.3447 0001328 159.5385 200.5843 14.19684909419557"
      },
      "geometry": {
        "type": "Point",
        "coordinates": [
          140.25710645219704,
          -3.03915785408728
        ]
      }
    },
    {
      "type": "Feature",
      "properties": {
        "norad_id": 43013,
        "name": "NOAA 20 (JPSS-1)",
        "group": "weather",
        "lat": -28.930030984574298,
        "lon": -64.58130932440741,
        "alt_km": 833.1636319122636,
        "timestamp": "2025-12-20T07:33:50.443784+00:00",
        "meta_object_name": "NOAA 20 (JPSS-1)",
        "meta_object_id": "2017-073A",
        "meta_epoch": "2025-12-19T21:33:06.613344",
        "meta_mean_motion": 14.19527486,
        "meta_eccentricity": 0.00021227,
        "meta_inclination": 98.7609,
        "meta_ra_of_asc_node": 290.1167,
        "meta_arg_of_pericenter": 76.9662,
        "meta_mean_anomaly": 283.1751,
        "meta_ephemeris_type": 0,
        "meta_classification_type": "U",
        "meta_norad_cat_id": 43013,
        "meta_element_set_no": 999,
        "meta_rev_at_epoch": 41903,
        "meta_bstar": 4.0679733e-05,
        "meta_mean_motion_dot": 4.2e-07,
        "meta_mean_motion_ddot": 0,
        "tle_line1": "1 43013U 17073A   25353.89799321  .00000042  00000+0  40680-4 0  9992",
        "tle_line2": "2 43013  98.7609 290.1167 0002122  76.9662 283.1751 14.19527486419032"
      },
      "geometry": {
        "type": "Point",
        "coordinates": [
          -64.58130932440741,
          -28.930030984574298
        ]
      }
    },
    {
      "type": "Feature",
      "properties": {
        "norad_id": 43226,
        "name": "GOES 17",
        "group": "weather",
        "lat": 0.2175410850757193,
        "lon": 113.08896458367346,
        "alt_km": 35799.06059392579,
        "timestamp": "2025-12-20T07:33:50.443797+00:00",
        "meta_object_name": "GOES 17",
        "meta_object_id": "2018-022A",
        "meta_epoch": "2025-12-19T11:26:17.750976",
        "meta_mean_motion": 1.00270964,
        "meta_eccentricity": 0.0003082,
        "meta_inclination": 0.474,
        "meta_ra_of_asc_node": 89.1739,
        "meta_arg_of_pericenter": 191.1693,
        "meta_mean_anomaly": 250.0534,
        "meta_ephemeris_type": 0,
        "meta_classification_type": "U",
        "meta_norad_cat_id": 43226,
        "meta_element_set_no": 999,
        "meta_rev_at_epoch": 2862,
        "meta_bstar": 0,
        "meta_mean_motion_dot": -1.58e-06,
        "meta_mean_motion_ddot": 0,
        "tle_line1": "1 43226U 18022A   25353.47659434 -.00000158  00000+0  00000+0 0  9993",
        "tle_line2": "2 43226   0.4740  89.1739 0003082 191.1693 250.0534  1.00270964 28620"
      },
      "geometry": {
        "type": "Point",
        "coordinates": [
          113.08896458367346,
          0.2175410850757193
        ]
      }
    },
    {
      "type": "Feature",
      "properties": {
        "norad_id": 43491,
        "name": "FENGYUN 2H",
        "group": "weather",
        "lat": -0.9359046165081705,
        "lon": -78.04610034295526,
        "alt_km": 35778.059916310456,
        "timestamp": "2025-12-20T07:33:50.443812+00:00",
        "meta_object_name": "FENGYUN 2H",
        "meta_object_id": "2018-050A",
        "meta_epoch": "2025-12-19T20:29:17.903616",
        "meta_mean_motion": 1.00271278,
        "meta_eccentricity": 0.0002387,
        "meta_inclination": 2.5685,
        "meta_ra_of_asc_node": 81.2551,
        "meta_arg_of_pericenter": 165.7305,
        "meta_mean_anomaly": 228.3876,
        "meta_ephemeris_type": 0,
        "meta_classification_type": "U",
        "meta_norad_cat_id": 43491,
        "meta_element_set_no": 999,
        "meta_rev_at_epoch": 2764,
        "meta_bstar": 0,
        "meta_mean_motion_dot": -1.08e-06,
        "meta_mean_motion_ddot": 0,
        "tle_line1": "1 43491U 18050A   25353.85367944 -.00000108  00000+0  00000+0 0  9997",
        "tle_line2": "2 43491   2.5685  81.2551 0002387 165.7305 228.3876  1.00271278 27641"
      },
      "geometry": {
        "type": "Point",
        "coordinates": [
          -78.04610034295526,
          -0.9359046165081705
        ]
      }
    },
    {
      "type": "Feature",
      "properties": {
        "norad_id": 43689,
        "name": "METOP-C",
        "group": "weather",
        "lat": 14.559527278813585,
        "lon": -125.75462592723292,
        "alt_km": 821.660540758844,
        "timestamp": "2025-12-20T07:33:50.443823+00:00",
        "meta_object_name": "METOP-C",
        "meta_object_id": "2018-087A",
        "meta_epoch": "2025-12-19T22:20:34.717632",
        "meta_mean_motion": 14.21486972,
        "meta_eccentricity": 8.974e-05,
        "meta_inclination": 98.6919,
        "meta_ra_of_asc_node": 51.5901,
        "meta_arg_of_pericenter": 27.0308,
        "meta_mean_anomaly": 333.0916,
        "meta_ephemeris_type": 0,
        "meta_classification_type": "U",
        "meta_norad_cat_id": 43689,
        "meta_element_set_no": 999,
        "meta_rev_at_epoch": 36936,
        "meta_bstar": 6.5359775e-05,
        "meta_mean_motion_dot": 9.9e-07,
        "meta_mean_motion_ddot": 0,
        "tle_line1": "1 43689U 18087A   25353.93095738  .00000099  00000+0  65360-4 0  9997",
        "tle_line2": "2 43689  98.6919  51.5901 0000897  27.0308 333.0916 14.21486972369365"
      },
      "geometry": {
        "type": "Point",
        "coordinates": [
          -125.75462592723292,
          14.559527278813585
        ]
      }
    }
  ]
}